satname,norad_id,inclination_deg,eccentricity,mean_motion_rev_per_day,perigee_km,apogee_km,l1,l2
STARLINK-1166,45060,53.0552,0.0001255,15.06421473,546.2766240829496,548.0148700524642,1 45060U 20006S   25265.43627639 -.00001283  00000+0 -67199-4 0  9994,2 45060  53.0552 321.9410 0001255  97.6646 262.4485 15.06421473311108
STARLINK-1169,45061,53.0561,0.000164,15.06413388,546.0347755161374,548.3062763846492,1 45061U 20006T   25265.44365349  .00001587  00000+0  12538-3 0  9994,2 45061  53.0561 321.9077 0001640  97.0944 263.0231 15.06413388311103
STARLINK-1171,45062,53.0559,0.000121,15.06411054,546.3397161513285,548.0156423037015,1 45062U 20006U   25265.42891090  .00001165  00000+0  97091-4 0  9990,2 45062  53.0559 321.9698 0001210  95.1834 264.9293 15.06411054311106
STARLINK-1133,45064,53.0547,0.0001449,15.06401077,546.2047745626078,548.2117396181129,1 45064U 20006W   25265.37547878  .00000476  00000+0  50863-4 0  9998,2 45064  53.0547 302.2088 0001449  82.3973 277.7181 15.06401077311377
STARLINK-1150,45067,53.0403,0.0001196,15.97896614,279.45912419853084,281.0518116768626,1 45067U 20006Z   25265.66668981  .00417694  83533-4  90227-3 0  9990,2 45067  53.0403 245.6161 0001196  68.0108 218.9130 15.97896614  5986
STARLINK-1167,45071,53.055,0.0001398,15.0640615,546.22454804483,548.1608702315043,1 45071U 20006AD  25265.40127309  .00000818  00000+0  73809-4 0  9998,2 45071  53.0550 302.0974 0001398  91.9506 268.1643 15.06406150311376
STARLINK-1168,45072,53.0549,0.0001189,15.0641049,546.355987664796,548.0028279065673,1 45072U 20006AE  25265.47129967  .00001801  00000+0  13973-3 0  9996,2 45072  53.0549 301.7818 0001189  84.5207 275.5918 15.06410490311382
STARLINK-1172,45074,53.0552,0.0001404,15.06413112,546.1990585428348,548.1436851336484,1 45074U 20006AG  25265.48235492  .00001631  00000+0  12833-3 0  9995,2 45074  53.0552 301.7337 0001404  89.4925 270.6225 15.06413112311386
STARLINK-1153,45080,53.054,0.0001444,15.06419469,546.1518771844139,548.1519006155286,1 45080U 20006AN  25265.39389569  .00003857  00000+0  27757-3 0  9990,2 45080  53.0540 302.1311 0001444  88.6508 271.4647 15.06419469311376
STARLINK-1151,45081,53.0554,0.0001298,15.06407847,546.2886009966978,548.0864152390059,1 45081U 20006AP  25265.51185443  .00001630  00000+0  12825-3 0  9997,2 45081  53.0554 301.6740 0001298  91.6498 268.4640 15.06407847311399
STARLINK-1190,45083,53.0485,0.0008468,15.73473383,343.2823376631368,354.6753810825703,1 45083U 20006AR  25265.39496775  .00138043  00000+0  95872-3 0  9990,2 45083  53.0485 273.8397 0008468  37.3960 322.7646 15.73473383311773
STARLINK-1173,45084,53.0444,0.0008494,15.83084476,316.03296242455053,327.414685992715,1 45084U 20006AS  25265.66668981  .00285818  00000+0  12645-2 0  9990,2 45084  53.0444 236.3181 0008494  25.7046 348.6185 15.83084476  6003
STARLINK-1179,45085,53.038,0.0002988,15.96011009,283.5077071610258,287.4898959160255,1 45085U 20006AT  25265.66668981  .00423329  83654-4  10141-2 0  9992,2 45085  53.0380 226.7905 0002988  52.9303 351.9655 15.96011009  5970
STARLINK-1185,45087,53.0548,0.0001295,15.06405553,546.2977084110571,548.0913692796175,1 45087U 20006AV  25265.35519241  .00000686  00000+0  64941-4 0  9999,2 45087  53.0548 282.3005 0001295  88.0790 272.0348 15.06405553311656
STARLINK-1183,45088,53.0536,0.0001244,15.06408731,546.3232887782451,548.0463088417891,1 45088U 20006AW  25265.31096155  .00002370  00000+0  17791-3 0  9992,2 45088  53.0536 282.5003 0001244  71.3911 288.7213 15.06408731311643
STARLINK-1176,45090,53.0478,0.0004285,15.80655387,325.71229146569385,331.4599531815247,1 45090U 20006AY  25265.66668981  .00282144  00000+0  14002-2 0  9995,2 45090  53.0478 234.0671 0004285  12.2174 146.7117 15.80655387  5983
STARLINK-1142,45093,53.0381,0.0006053,15.50382387,411.496510278439,419.72101890105114,1 45093U 20006BB  25265.33131337  .00103753  00000+0  17790-2 0  9997,2 45093  53.0381 229.4261 0006053  67.4656 292.6992 15.50382387312396
STARLINK-1146,45094,53.0439,0.0002502,15.97647545,279.2813641339517,282.6135700012719,1 45094U 20006BC  25265.66668981  .00483347  10891-3  10576-2 0  9992,2 45094  53.0439 227.8459 0002502  36.9970 347.1511 15.97647545  5929
STARLINK-1147,45095,53.0402,0.0007442,15.92204589,291.1479217044598,301.0818782323731,1 45095U 20006BD  25265.66668981  .00319465  49758-4  93733-3 0  9994,2 45095  53.0402 230.7564 0007442  29.5418 290.6703 15.92204589  6011
STARLINK-1152,45096,53.0459,0.0005678,15.20732767,499.72160048087517,507.53653402684813,1 45096U 20006BE  25265.33613624  .00019731  00000+0  89750-3 0  9992,2 45096  53.0459 269.0364 0005678  47.2425 312.9047 15.20732767311834
STARLINK-1184,45098,53.0535,0.000129,15.06419207,546.2593295048046,548.0460542453093,1 45098U 20006BG  25265.32570512  .00004485  00000+0  31966-3 0  9997,2 45098  53.0535 282.4341 0001290  84.0895 276.0241 15.06419207311641
STARLINK-1193,45100,53.0531,0.0001336,15.06411702,546.2504714500292,548.1009150016598,1 45100U 20006BJ  25265.45470984  .00003278  00000+0  23879-3 0  9990,2 45100  53.0531 281.8540 0001336  89.4959 270.6183 15.06411702311665
STARLINK-1143,45179,53.0545,0.0003811,15.33714682,462.1330873882598,467.34872892985913,1 45179U 20012B   25265.57858668  .00135351  00000+0  40311-2 0  9992,2 45179  53.0545  53.4974 0003811 182.9032 177.1947 15.33714682309895
STARLINK-1201,45182,53.0344,0.0006815,16.160709,225.73776297384575,234.7449826960201,1 45182U 20012E   25265.53124141  .01213059  10715-2  83592-3 0  9993,2 45182  53.0344   1.5239 0006815 357.3852   2.7147 16.16070900310458
STARLINK-1202,45183,53.0556,0.0001363,15.06391039,546.2950934969704,548.1829510006364,1 45183U 20012F   25265.51738821 -.00000100  00000+0  12149-4 0  9993,2 45183  53.0556  81.5738 0001363  95.2170 264.8975 15.06391039309499
STARLINK-1216,45185,53.055,0.0001306,15.06402151,546.3005157802363,548.1094151016105,1 45185U 20012H   25265.51001586  .00001441  00000+0  11562-3 0  9991,2 45185  53.0550  81.6051 0001306  94.5891 265.5247 15.06402151309435
STARLINK-1224,45186,53.0325,0.0007472,16.23409141,205.3890321775698,215.23481024542798,1 45186U 20012J   25264.88092183  .02654510  11927-4  10114-2 0  9993,2 45186  53.0325  25.7204 0007472 336.9699  23.1004 16.23409141310150
STARLINK-1225,45187,53.0543,0.0001314,15.06394884,546.3172449249705,548.1372306466592,1 45187U 20012K   25265.19671103  .00001844  00000+0  14268-3 0  9998,2 45187  53.0543  83.0136 0001314  94.5677 265.5462 15.06394884309432
STARLINK-1230,45189,53.0552,0.000122,15.06404217,546.3537425235045,548.0435244180699,1 45189U 20012M   25265.20038959  .00001539  00000+0  12217-3 0  9991,2 45189  53.0552  82.9967 0001220  91.8546 268.2583 15.06404217306663
STARLINK-1234,45190,53.0573,0.0001394,15.06391226,546.2730517775053,548.2038464527186,1 45190U 20012N   25265.55055991  .00000518  00000+0  53666-4 0  9996,2 45190  53.0573  41.4255 0001394  95.7303 264.3845 15.06391226309952
STARLINK-1240,45194,53.0392,0.0003854,16.05634085,256.2893816368287,261.40516911628947,1 45194U 20012S   25265.58903368  .00805702  34223-3  11045-2 0  9992,2 45194  53.0392  23.8969 0003854   0.6527  99.0148 16.05634085309320
STARLINK-1244,45196,53.0336,0.0006317,16.12252196,236.49101701967356,244.85322046028978,1 45196U 20012U   25265.55076027  .01018142  64960-3  91109-3 0  9990,2 45196  53.0336  23.2284 0006317 342.3778  17.7037 16.12252196310351
STARLINK-1269,45197,53.0543,0.0001419,15.06387735,546.2664363573513,548.2318609463382,1 45197U 20012V   25265.47683413  .00004716  00000+0  33536-3 0  9997,2 45197  53.0543  81.7583 0001419  86.5954 273.5197 15.06387735309452
STARLINK-1154,45198,53.0553,0.0001214,15.06391725,546.3961793437011,548.0776601314137,1 45198U 20012W   25265.46762345 -.00000748  00000+0 -31368-4 0  9994,2 45198  53.0553  61.7961 0001214  85.1002 275.0126 15.06391725309705
STARLINK-1199,45201,53.0553,0.0001216,15.06396494,546.3801796528742,548.0644270354478,1 45201U 20012Z   25265.14693898  .00000205  00000+0  32628-4 0  9996,2 45201  53.0553  63.2366 0001216  89.5971 270.5158 15.06396494309715
STARLINK-1206,45204,53.0355,0.0008481,16.17758105,220.04519761061874,231.2465341076886,1 45204U 20012AC  25265.54578186  .01377903  15426-2  84415-3 0  9999,2 45204  53.0355   4.5135 0008481 315.0176  45.0173 16.17758105310588
STARLINK-1208,45205,53.0401,0.0002499,15.99555148,273.9892896691563,277.314853447122,1 45205U 20012AD  25265.66668981  .00555342  14572-3  10910-2 0  9990,2 45205  53.0401   5.7341 0002499   5.5021  67.2993 15.99555148  5977
STARLINK-1209,45206,53.0558,0.0001342,15.06386402,546.3238467938854,548.1826215327337,1 45206U 20012AE  25265.55424070 -.00004845  00000+0 -30670-3 0  9990,2 45206  53.0558  41.4109 0001342  94.9498 265.1644 15.06386402309103
STARLINK-1210,45207,53.0296,0.0011163,15.47004044,417.9010477440934,433.0908386530782,1 45207U 20012AF  25265.60070364  .00143759  00000+0  27525-2 0  9990,2 45207  53.0296  13.6431 0011163 264.3349  95.6384 15.47004044310453
STARLINK-1231,45212,53.0541,0.0002986,15.08944759,537.35761766003,541.4887846121483,1 45212U 20012AL  25265.14185452  .00046197  00000+0  28931-2 0  9990,2 45212  53.0541  62.7783 0002986 173.8974 186.2053 15.08944759309673
STARLINK-1271,45217,53.0548,0.0001263,15.06405603,546.3197162494826,548.0690549574856,1 45217U 20012AR  25265.39759216  .00002488  00000+0  18586-3 0  9998,2 45217  53.0548  62.1122 0001263  87.6739 272.4395 15.06405603309758
STARLINK-1191,45222,53.0555,0.0001656,15.06395882,546.0773392326792,548.3710188551786,1 45222U 20012AW  25265.53948919 -.00003277  00000+0 -20120-3 0  9996,2 45222  53.0555  41.4727 0001656  99.1324 260.9852 15.06395882310059
STARLINK-1212,45223,53.0565,0.0001261,15.06390614,546.3670347451507,548.1136149064714,1 45223U 20012AX  25265.55800982 -.00000657  00000+0 -25249-4 0  9993,2 45223  53.0565  42.0461 0001261  91.0254 269.0879 15.06390614310055
